name,full_address,postcode,council,town
THE MET,"The Met, Abertillery, Mitre Street, Abertillery, Blaenau Gwent NP13 1AL",NP13 1AL,Blaenau Gwent,Abertillery
National Waterfront Museum,"National Waterfront Museum, Oystermouth Rd, Maritime Quarter, Swansea SA1 3RD ",SA1 3RD ,Swansea,Swansea
St Fagans National Museum of History,"St. Fagans, National Museum of History, Cardiff CF5 6XB",CF5 6XB,Cardiff,St. Fagans
UWC Atlantic College St Donat's Castle,"St. Donat's Castle, UWC Atlantic College, CF61 1WF",CF61 1WF,Vale of Glamorgan,St. Donats
Porth Plaza Car park ,"Porth Plaza Car park , 52 Pontypridd Rd, Porth CF39 9PN",CF39 9PN,Rhondda Cynon Taf,Porth
De Winton Street Car Park,"De Winton Street Car Park, De Winton Street, Tonypandy, CF40 2QU",CF40 2QU,Rhondda Cynon Taf,Tonypandy
Lime Street Car Park,"Lime Street Car Park, Lake St, Ferndale CF43 4HL",CF43 4HL,Rhondda Cynon Taf,Ferndale
Henry Street Car Park,"Henry Street Car Park, Henry Street, Mountain Ash West, CF45 3HD",CF45 3HD ,Rhondda Cynon Taf,Mountain Ash West
Aberdare Library Square and Car Park,"Aberdare Library Square and Car Park, 18 High St, Aberdare CF44 7AW ",CF44 7AW ,Rhondda Cynon Taf,Aberdare East
National Slate Museum,"National Slate Museum, Llanberis, Caernarfon LL55 4TY",LL55 4TY,Gwynedd,Llanddeiniolen
National Museum Cardiff,"National Museum Cardiff, Cardiff CF10 3NP",CF10 3NP,Cardiff,Cardiff
"Turner House, Plymouth Road, Penarth, CF64 3DH","Turner House, 12 Plymouth Rd, Penarth CF64 3DH",CF64 3DH,Vale of Glamorgan,Penarth
National Wool Museum,"National Wool Museum, Dre-Fach Felindre, Felindre, Llandysul SA44 5UP",SA44 5UP,Carmarthenshire,Llangeler
"Penarth Pier Pavilion, The Esplanade, Penarth","The Esplanade, Penarth CF64 3AU",CF64 3AU,Vale of Glamorgan,Penarth
"Cardiff Castle, Castle Street, Cardiff CF10 3RB","Cardiff Castle, Castle Street, Cardiff CF10 3RB",CF10 3RB,Cardiff,Cardiff
Rhondda Heritage Park,"Rhondda Heritage Park, Coedcae Rd, South Wales CF37 2NP",CF37 2NP,Rhondda Cynon Taf,Trehafod
"Margam Country Park, Margam, Port Talbot, SA13 2TJ ","Margam Country Park, Margam, Port Talbot, SA13 2TJ ",SA13 2TJ,Neath Port Talbot,Margam
Digital Event,Digital Event,Digital Event,Digital Event,Digital Event
Barry High Street,"High St, Barry CF62 7EB",CF62 7EB,Vale of Glamorgan,Barry
Porth Plaza Car Park,"Porth Plaza Car Park, 52 Pontypridd Rd, Porth CF39 9PN",CF39 9PN,Rhondda Cynon Taf,Porth
"The Spiegeltent, Cardiff Castle Grounds, Castle Street, Cardiff, CF10 3RB","Cardiff Castle, The Spiegeltent, Cardiff Castle Grounds, Castle Street, Cardiff, CF10 3RB",CF10 3RB,Cardiff,Cardiff
Harlech Castle,Harlech LL46 2YH , LL46 2YH ,Gwynedd,Harlech
"Amelia Trust Farm, CF62 3AS","Amelia Trust Farm, Five Mile Ln, Barry CF62 3AS",CF62 3AS,Vale of Glamorgan,Barry
"Insole Court, Fairwater Road, Llandaff, Cardiff CF5 2LN ","Insole Court, Fairwater Road, Llandaff, Cardiff CF5 2LN ",CF5 2LN,Cardiff,Llandaff
Chepstow Castle,"Chepstow Castle, Bridge St, Chepstow NP16 5EY ",NP16 5EY,Monmouthshire,Chepstow
"Vale of Glamorgan, Penllyn Estate, Llwynhelig, Cowbridge, Vale of Glamorgan, CF71 7FF","Forage Farmshop, Penllyn Estate, Llwynhelig, Cowbridge, Vale of Glamorgan, CF71 7FF",CF71 7FF,Vale of Glamorgan,Penllyn
"Central Park, Barry, CF63 4RW","Kings Square, Barry CF63 4RW",CF63 4RW,Vale of Glamorgan,Barry
"Kings Square, Barry, CF63 4RW","Kings Square, Barry CF63 4RW",CF63 4RW,Vale of Glamorgan,Barry
Barry Town Centre,"Kings Square, Barry CF63 4RW",CF63 4RW,Vale of Glamorgan,Barry
"Heol yr Orsaf, Pontyclun","Pontyclun, Heol Yr Orsaf,  Wales, CF72 9TY ",CF72 9TY,Rhondda Cynon Taf,Pont-y-clun
National Roman Legion Museum,"National Roman Legion Museum, High St, Caerleon, Newport NP18 1AE",NP18 1AE,Newport,Caerleon
"Barry Library, 160 Kings Square, Barry, CF63 4RW","Barry Library, 160 Kings Square, Barry, CF63 4RW",CF63 4RW,Vale of Glamorgan,Barry
Llantwit Major Town Centre,"Llantwit Major, Wales, CF61 1SA",CF61 1SA,Vale of Glamorgan,Llantwit Major
Big Pit National Coal Museum,"Big Pit, National Coal Museum, Pontypool NP4 9XP",NP4 9XP,Torfaen,Blaenavon
Blaenavon Ironworks,"Blaenavon Ironworks, North St, Blaenavon NP4 9RN ",NP4 9RN,Torfaen,Blaenavon
"Saint Donat's Castle, UWC Atlantic College, CF61 1WF","St. Donat's Castle, UWC Atlantic College, CF61 1WF",CF61 1WF,Vale of Glamorgan,St. Donats
"Saint Donat's, Llantwit Major, CF611WF","St. Donat's Castle, UWC Atlantic College, CF61 1WF",CF61 1WF,Vale of Glamorgan,St. Donats
"St Donat's, Llantwit Major, Vale of Glamorgan, CF61 1WF","St. Donat's Castle, UWC Atlantic College, CF61 1WF",CF61 1WF,Vale of Glamorgan,St. Donats
"Penarth Pier Pavilion, The Esplanade, Penarth, CF64 3AU","Penarth Pier Pavilion, The Esplanade, Penarth CF64 3AU",CF64 3AU,Vale of Glamorgan,Penarth
Tretower Court and Castle,"Tretower Court and Castle, Powys, Tretower, Crickhowell NP8 1RF",NP8 1RF,Powys,Llanfihangel Cwmdu with Bwlch and Cathedine
"UWC Atlantic College St Donat's Castle, Saint Donats, CF61 1WF","St. Donat's Castle, UWC Atlantic College, CF61 1WF",CF61 1WF,Vale of Glamorgan,St. Donats
Barry Island,"Barry Island, Island Road, Barry, Wales, CF62 7AR",CF62 7AR,Vale of Glamorgan,Barry
"UWC Atlantic College, Llantwit Major, CF61 1WF","St. Donat's Castle, UWC Atlantic College, CF61 1WF",CF61 1WF,Vale of Glamorgan,St. Donats
Caerphilly Castle,"Caerphilly Castle, Castle Street, Caerphilly, Wales, CF83 1NZ",CF83 1NZ,Caerphilly,Caerphilly
"Porthkerry Country Park, Park Rd, Barry","Porthkerry Country Park, Park Rd, Barry CF62 3BY",CF62 3BY,Vale of Glamorgan,Barry
Bryngarw Country Park,"Bryngarw Country Park, Brynmenyn, Bridgend CF32 8UU",CF32 8UU,Bridgend,Garw Valley
Tintern Abbey,"Tintern Abbey, Tintern NP16 6SE ",NP16 6SE,Monmouthshire,Tintern
Mountain Ash,"Mountain Ash, CF45 4YG",CF45 4YG,Rhondda Cynon Taf,Abercynon
"Fonmon Castle, Barry, Vale of Glamorgan","Fonmon Castle, Barry, Vale of Glamorgan",CF62 3ZN,Vale of Glamorgan,Fonmon
Castell Coch,"Castell Coch, Cardiff CF15 7JS ",CF15 7JS,Cardiff,Cardiff
"Dyffryn House, St Nicholas, CF5 6SU","Dyffryn House, St Nicholas, CF5 6SU",CF5 6SU,Vale of Glamorgan,St. Nicholas
"Tredegar House, Pencarn Way, Newport, NP10 8YW ","Tredegar House, Pencarn Way, Newport, NP10 8YW ",NP10 8YW,Newport,Newport
St Fagans National Museum of History                         Fully Booked,"St. Fagans, National Museum of History                         Fully Booked, CF5 6XB",CF5 6XB,Cardiff,St. Fagans
"Barry Town Centre, Holton Road, Park Crescent, High Street & Goodsheds","Barry Town Centre, Holton Road, Park Crescent, High Street & Goodsheds, CF62 5TR",CF62 5TR,Vale of Glamorgan,Barry
"Barry, Goodsheds, Hood Road, Barry, CF62 5QU","Barry, Goodsheds, Hood Road, Barry, CF62 5QU",CF62 5QU,Vale of Glamorgan,Barry
"Llantwit Major Beach, Llantwit Major, CF61 1RF","Llantwit Major Beach, Llantwit Major, CF61 1RF",CF61 1RF,Vale of Glamorgan,Llantwit Major
"The Castle Green, Cardiff Castle, Castle Street, Cardiff, CF10 3RB","The Castle Green, Cardiff Castle, Castle Street, Cardiff, CF10 3RB",CF10 3RB,Cardiff,Cardiff
"Wales Millennium Centre, Bute Place, Cardiff, CF10 5AL","Wales Millennium Centre, Bute Place, Cardiff, CF10 5AL",CF10 5AL,Cardiff,Cardiff
"UWC Atlantic College, Llantwit Major, CF61 1WF, United Kingdom","St. Donat's Castle, UWC Atlantic College, CF61 1WF",CF61 1WF,Vale of Glamorgan,St. Donats
National Waterfront Museum                         Cancelled,"National Waterfront Museum, Oystermouth Rd, Maritime Quarter, Swansea SA1 3RD ",SA1 3RD ,Swansea,Swansea
"Rivermouth car park, Ogmore-by-Sea, CF32 0PB","Rivermouth car park, Ogmore-by-Sea, CF32 0PB",CF32 0PB,Vale of Glamorgan,Ogmore-by-Sea
"Turner House Plymouth Road, Penarth, CF64 3DH","Turner House, 12 Plymouth Rd, Penarth CF64 3DH",CF64 3DH,Vale of Glamorgan,Penarth
"West House Community Garden, Penarth, CF64 2YG","West House Community Garden, Penarth, CF64 2YG",CF64 2YG,Vale of Glamorgan,Penarth
Raglan Castle,"Raglan Castle, Castle Rd, Raglan NP15 2BT ",NP15 2BT,Monmouthshire,Raglan
"Amelia Trust Farm, Five Mile Lane, Barry, CF62 3AS","Amelia Trust Farm, Five Mile Lane, Barry, CF62 3AS",CF62 3AS,Vale of Glamorgan,Barry
Penarth Town Centre,"Penarth Town Centre, CF11 0SD",CF11 0SD,Vale of Glamorgan,Penarth
Plas Mawr,"Plas Mawr, CF5 3JW",CF5 3JW,Cardiff,Cardiff
Caerleon Roman Fortress and Baths,"Caerleon Roman Fortress and Baths, NP18 1AE",NP18 1AE,Newport,Caerleon
St Davids Bishop's Palace,"St Davids Bishop's Palace, SA62 6PE",SA62 6PE,Pembrokeshire,St. Davids
Beaumaris Castle,"Beaumaris Castle, LL58 8AP",LL58 8AP,Isle of Anglesey,Beaumaris
Conwy Castle,"Conwy Castle, LL32 8AY",LL32 8AY,Conwy,Conwy
Denbigh Castle,"Denbigh Castle, LL16 3NB",LL16 3NB,Denbighshire,Denbigh
Caernarfon Castle,"Caernarfon Castle, LL55 2AY",LL55 2AY,Gwynedd,Caernarfon
Criccieth Castle,"Criccieth Castle, LL52 0DP",LL52 0DP,Gwynedd,Criccieth
Valle Crucis Abbey,"Valle Crucis Abbey, LL20 8DD",LL20 8DD,Denbighshire,Llantysilio
Rhuddlan Castle,"Rhuddlan Castle, LL18 5AD",LL18 5AD,Denbighshire,Rhuddlan
Laugharne Castle,"Laugharne Castle, SA33 4FA",SA33 4FA,Carmarthenshire,Pendine
Kidwelly Castle,"Kidwelly Castle, SA17 5BQ",SA17 5BQ,Carmarthenshire,Kidwelly
The Met| Bryngarw Country Park,"The Met| Bryngarw Country Park, CF32 8UU",CF32 8UU,Bridgend,Garw Valley
National Museum Cardiff                         Fully Booked,"National Museum Cardiff, Cardiff CF10 3NP",CF10 3NP,Cardiff,Cardiff
"Vale of Glamorgan, UWC Atlantic, St Donat's Castle, Llantwit Major, Vale of Glamorgan, CF61 1WF","St. Donat's Castle, UWC Atlantic College, CF61 1WF",CF61 1WF,Vale of Glamorgan,St. Donats
Treorchy,"Treorchy, CF42 6AH",CF42 6AH,Rhondda Cynon Taf,Treorchy
Porth,"Ynyshir, Porth, CF39 0EG",CF39 0EG,Rhondda Cynon Taf,Porth
Llantrisant Leisure Centre Tir Meirbon Lane Southgate Park CF72 8DJ,Llantrisant Leisure Centre Tir Meirbon Lane Southgate Park CF72 8DJ,CF72 8DJ,Rhondda Cynon Taf,Llantrisant
Aberdare Park,"Aberdare Park, 9 Park Ln, Aberdare, CF44 8HN",CF44 8HN ,Rhondda Cynon Taf,Aberdare
Ynysangharad War Memorial Park,"Ynysangharad War Memorial Park, Pontypridd, CF37 4PD",CF37 4PD,Rhondda Cynon Taf,Pontypridd
"Promenade, Barry CF62 5TQ","Promenade, Barry, CF62 5TQ",CF62 5TQ,Vale of Glamorgan,Barry
Barry Town,"Barry Town, CF11 7HR",CF11 7HR,Vale of Glamorgan,Barry
"Cowbridge, Estate Office, The Lodge, Llwynhelig, Cowbridge, CF717FF","Cowbridge, Estate Office, The Lodge, Llwynhelig, Cowbridge, CF717FF",CF71 7FF,Vale of Glamorgan,Cowbridge
"St Donat's Castle UWC, Atlantic College, Llantwit Major, CF61 1WF","St Donat's Castle UWC, Atlantic College, Llantwit Major, CF61 1WF",CF61 1WF,Vale of Glamorgan,St. Donats
Barclodiad y Gawres Burial Chamber,"Barclodiad y Gawres Burial Chamber, LL63 5TE",LL63 5TE,Isle of Anglesey,Ty Croes 
Mountain Ash Town Centre,"Mountain Ash Town Centre, CF45 3AA",CF45 3AA,Rhondda Cynon Taf,Mountain Ash
"Fonmon Castle, Barry, Vale of Glamorgan, CF62 3ZN","Fonmon Castle, Barry, Vale of Glamorgan, CF62 3ZN",CF62 3ZN,Vale of Glamorgan,Fonmon 
"Hangar 872, Bro Tathan North, St Athan, CF62 4QR","Hangar 872, Bro Tathan North, St Athan, CF62 4QR",CF62 4QR,Vale of Glamorgan,St Athan
National Waterfront Museum                         Fully Booked,"National Waterfront Museum                         Fully Booked, SA1 3ST",SA1 3ST,Swansea,Swansea
"Penarth, Willmorea 1938, The Former Golf Kiosk, Cliff Parade, Penarth, CF64 5BP","Penarth, Willmorea 1938, The Former Golf Kiosk, Cliff Parade, Penarth, CF64 5BP",CF64 5BP,Vale of Glamorgan,Cardiff
"Vale Of Glamorgan, Amelia Trust Farm, Five Mile Lane, Barry, Vale Of Glamorgan, CF62 3AS","Vale Of Glamorgan, Amelia Trust Farm, Five Mile Lane, Barry, Vale Of Glamorgan, CF62 3AS",CF62 3AS,Vale of Glamorgan,Barry
"Llwynhelig, Cowbridge, Vale of Glamorgan, CF71 7FF","Llwynhelig, Cowbridge, Vale of Glamorgan, CF71 7FF",CF71 7FF,Vale of Glamorgan,Cowbridge
"Dyffryn Gardens, Dyffryn Lane, St Nicholas, CF5 6SU","Dyffryn Gardens, Dyffryn Lane, St Nicholas, CF5 6SU",CF5 6SU,Vale of Glamorgan,St. Nicholas
"The Kymin, Beach Road, Penarth, CF64 1JX","The Kymin, Beach Road, Penarth, CF64 1JX",CF64 1JX,Vale of Glamorgan,Cardiff
Bryn Celli Ddu Burial Chamber,"Bryn Celli Ddu Burial Chamber, LL61 6EQ",LL61 6EQ,Isle of Anglesey,Llanfair 
Cardiff Castle Castle Street Cardiff CF10 3RB,Cardiff Castle Castle Street Cardiff CF10 3RB,CF10 3RB,Cardiff,Cardiff
"St Donat's Castle, Llantwit Major, CF61 1WF","St Donat's Castle, Llantwit Major, CF61 1WF",CF61 1WF,Vale of Glamorgan,St Donat's
"Penarth Pier, Penarth Esplanade, CF64 3AU","Penarth Pier, Penarth Esplanade, CF64 3AU",CF64 3AU,Vale of Glamorgan,Cardiff
"UWC Atlantic College St Donat's Castle, Saint Donats, CF61 1WF, United Kingdom","St. Donat's Castle, UWC Atlantic College, CF61 1WF",CF61 1WF,Vale of Glamorgan,St Donat's
"St Donat's Castle, Llantwit Major, CF61 1WF, United Kingdom","St. Donat's Castle, UWC Atlantic College, CF61 1WF",CF61 1WF,Vale of Glamorgan,St Donat's
"Fonmon, Barry, Vale of Glamorgan, CF62 3ZN","Fonmon, Barry, Vale of Glamorgan, CF62 3ZN",CF62 3ZN,Vale of Glamorgan,Fonmon 
Neath Abbey and Gatehouse,"Neath Abbey and Gatehouse, SA10 7LE",SA10 7LE,Neath Port Talbot,Swansea
Llantwit Major & the Glamorgan Heritage Coast,"Llantwit Major & the Glamorgan Heritage Coast, CF61 2XD",CF61 2XD,Vale of Glamorgan,Llantwit Major
Barry & Barry Island,"Barry Promenade, CF62 5TQ",CF62 5TQ,Vale of Glamorgan,Barry
Cowbridge & The Rural Vale,Cowbridge,CF71 ,Vale of Glamorgan,Cowbridge
Llantwit Major & the Glamorgan Heritage Coast,Llantwit Major,CF61,Vale of Glamorgan,Llantwit Major
Penarth,Penarth,CF64,Vale of Glamorgan,Penarth
"CF40 2QF, Clwb Coffi, Dunraven Street, Tonypandy","Tonypandy, CF40 2QF, Clwb Coffi, Dunraven Street,",CF40 2QF,Rhondda Cynon Taf,Tonypandy
"Church Road, The Phoenix, Ton Pentre CF41 7EH","Church Road, The Phoenix, Ton Pentre CF41 7EH",CF41 7EH,Rhondda Cynon Taf,Tonypandy
Cowbridge,"Cowbridge, CF71 7DD",CF71 7DD,Vale of Glamorgan,Cowbridge
"Penllyn Estate Farm, Llwynhelig, Cowbridge, Cf71 7FF","Penllyn Estate Farm, Llwynhelig, Cowbridge, Cf71 7FF, CF71 7FF",CF71 7FF,Vale of Glamorgan,Cowbridge
"Capel Hermon, Regent Street, Treorci","Capel Hermon, Regent Street, Treorchy, CF42 6PN",CF42 6PN,Rhondda Cynon Taf,Treorchy
"Treorchy, Ystradfechan Cricket Pitch","Treorchy, Ystradfechan Cricket Pitch, CF42 6AB",CF42 6AB,Rhondda Cynon Taf,Treorchy
"The Lion, The Lion's Den, Treorchy","The Lion, The Lion's Den, Treorchy, CF42 6AH",CF42 6AH,Rhondda Cynon Taf,Tonypandy
"Dyffryn Gardens, St Nicholas, CF5 6SU","Dyffryn Gardens, St Nicholas, CF5 6SU",CF5 6SU,Vale of Glamorgan,St. Nicholas
"Wales Millenium Centre, Bute Place, Cardiff, CF10 5AL","Wales Millenium Centre, Bute Place, Cardiff, CF10 5AL",CF10 5AL,Cardiff,Cardiff
Dare Valley Country Park,"Dare Valley Country Park, CF44 7RG",CF44 7RG,Rhondda Cynon Taf,Aberdare
Pentre Ifan Burial Chamber,"Pentre Ifan Burial Chamber, SA41 3TZ",SA41 3TZ,Pembrokeshire,Pentre Ifan
Castell y Bere,"Castell y Bere, LL36 9YS",LL36 9YS,Gwynedd,Llanfihangel-y-pennant 
Din Lligwy Hut Group,"Din Lligwy Hut Group, LL72 8NH",LL72 8NH,Isle of Anglesey,Din Lligwy
"Aberdare, Cannon Street","Aberdare, Cannon Street, CF44 7AP",CF44 7AP,Rhondda Cynon Taf,Aberdare
"Penllyn, Cowbridge, CF71 7RQ","Penllyn, Cowbridge, CF71 7RQ",CF71 7RQ,Vale of Glamorgan,Penllyn
"Victoria Park, Barry, CF63 2JS","Victoria Park, Barry, CF63 2JS",CF63 2JS,Vale of Glamorgan,Barry
"King Square, Holton Road, Barry, CF63 4RW","King Square, Holton Road, Barry, CF63 4RW",CF63 4RW,Vale of Glamorgan,Barry
"Barry Island Promenade, Vale of Glamorgan, CF62 5BQ","Barry Island Promenade, Vale of Glamorgan, CF62 5BQ",CF62 5BQ,Vale of Glamorgan,Barry
"Barry Island, Vale of Glamorgan, CF62 5TJ","Barry Island, Vale of Glamorgan, CF62 5TJ",CF62 5TJ,Vale of Glamorgan,Barry
National Wool Museum                         Fully Booked,"National Wool Museum                         Fully Booked, SA44 5UP",SA44 5UP,Carmarthenshire,Waungilwen
"Glamorgan, CF64 5UP","Glamorgan, CF64 5UP",CF64 5UP,Vale of Glamorgan,Penarth
Penarth Town and Sea Front,"Penarth Town and Sea Front, CF64 1AB",CF64 1AB,Vale of Glamorgan,Penarth
"Penarth Town, Esplanade and Pier","Penarth Town, Esplanade and Pier, CF64 3AS",CF64 3AS,Vale of Glamorgan,Penarth
"Penarth Town, Esplanade and Pier, Penarth, Vale of Glamorgan","Penarth Town, Esplanade and Pier, Penarth, Vale of Glamorgan, CF64 3AU",CF64 3AU,Vale of Glamorgan,Penarth
"Vale of Glamorgan, Fonmon Castle, Fonmon, Barry, Vale of Glamorgan, CF62 3ZN","Vale of Glamorgan, Fonmon Castle, Fonmon, Barry, Vale of Glamorgan, CF62 3ZN",CF62 3ZN,Vale of Glamorgan,Fonmon
"Cardiff, Coedarhydyglyn Park, Near Culverhouse Cross, St. Nicholas, Cardiff","Cardiff, Coedarhydyglyn Park, Near Culverhouse Cross, St. Nicholas, Cardiff, CF5 6SF",CF5 6SF,Vale of Glamorgan,Cardiff
"Dyffryn Lane, St Nicholas, CF5 6SU","Dyffryn Lane, St Nicholas, CF5 6SU",CF5 6SU,Vale of Glamorgan,St. Nicholas
"Coco Cubanans, Barry","Coco Cubanans, Barry, CF62 7AF",CF62 7AF,Vale of Glamorgan,Barry
"Dyffryn House & Gardens, National Trust, Dyffryn, St Nicholas, CF5 6SU","Dyffryn House & Gardens, National Trust, Dyffryn, St Nicholas, CF5 6SU",CF5 6SU,Vale of Glamorgan,St. Nicholas
"Vale of Glamorgan, Penarth Pier Pavilion, The Esplanade, Penarth, Vale of Glamorgan, CF64 3AU","Vale of Glamorgan, Penarth Pier Pavilion, The Esplanade, Penarth, Vale of Glamorgan, CF64 3AU",CF64 3AU,Vale of Glamorgan,Cardiff
"Cowbridge, Forage Farm Shop, Penllyn Estate, Llwynhelig, Cowbridge, CF71 7FF","Cowbridge, Forage Farm Shop, Penllyn Estate, Llwynhelig, Cowbridge, CF71 7FF",CF71 7FF,Vale of Glamorgan,Cowbridge
"Vale of Glamorgan, Fonmon Castle, Fonmon, Barry, Vale of Glamorgan, CF623ZN","Vale of Glamorgan, Fonmon Castle, Fonmon, Barry, Vale of Glamorgan, CF623ZN, CF62 3ZN",CF62 3ZN,Vale of Glamorgan,Fonmon
"St Donat's Castle, Saint Donats, CF61 1WF","St Donat's Castle, Saint Donats, CF61 1WF",CF61 1WF,Vale of Glamorgan,St Donat's
"CF37 4TH, Llys Cadwyn, Pontypridd Library","CF37 4TH, Llys Cadwyn, Pontypridd Library",CF37 4TH,Rhondda Cynon Taf,Pontypridd
"Francis St, Thomastown, Thomastown Social Club. Kosy Hall, Tonyrefail. CF39 8DS","Francis St, Thomastown, Thomastown Social Club. Kosy Hall, Tonyrefail. CF39 8DS",CF39 8DS,Rhondda Cynon Taf,Tonyrefail
"Sausage Revolution, Atlantic Trading Estate, Barry, CF63 3RF","Sausage Revolution, Atlantic Trading Estate, Barry, CF63 3RF",CF63 3RF,Vale of Glamorgan,Barry
Big Pit National Coal Museum                         Fully Booked,"Big Pit National Coal Museum                         Fully Booked, NP4 9XP",NP4 9XP,Torfaen,Blaenavon
"St Donats Castle, St Donats, CF61 1WF","St Donats Castle, St Donats, CF61 1WF",CF61 1WF,Vale of Glamorgan,St Donat's
"St Donats Castle, St Donats","St Donats Castle, St Donats, CF61 1WF",CF61 1WF,Vale of Glamorgan,St Donat's
"Vale of Glamorgan, Cowbridge Town Hall, High Street, Cowbridge, Vale of Glamorgan, CF71 7DD","Vale of Glamorgan, Cowbridge Town Hall, High Street, Cowbridge, Vale of Glamorgan, CF71 7DD",CF71 7DD,Vale of Glamorgan,Cowbridge
"Penllyn Farm, What 3 Words: Perfect . Stoppage . Names","Penllyn Farm, What 3 Words: Perfect . Stoppage . Names, CF71 7RN",CF71 7RN,Vale of Glamorgan,Penllyn
"Barry, Art Central Gallery, Library, King Square, Barry, CF63 4RW","Barry, Art Central Gallery, Library, King Square, Barry, CF63 4RW",CF63 4RW,Vale of Glamorgan,Barry
"Greenland Farm, Bonvilston, Vale of Glamorgan","Greenland Farm, Bonvilston, Vale of Glamorgan, CF5 6TN",CF5 6TN,Vale of Glamorgan,Bonvilston
